ARIRANG-2 (KOMPSAT-2)   
1 29268U 06031A   25144.86542083  .00000344  00000+0  73716-4 0  9997
2 29268  97.8380 343.0926 0013524 221.3428 196.5348 14.64286346  4743
LAPAN-TUBSAT            
1 29709U 07001A   25144.90262808  .00000562  00000+0  71958-4 0  9992
2 29709  98.1089 131.1405 0012675  16.2561 343.9057 14.85314084993517
HAIYANG-1B              
1 31113U 07010A   25144.44025916  .00000094  00000+0  51575-4 0  9993
2 31113  98.3136 137.2692 0012226 274.9088  85.0699 14.30888207945031
COSMO-SKYMED 1          
1 31598U 07023A   25144.84175345  .00000617  00000+0  71446-4 0  9990
2 31598  97.8874 329.3116 0000127 140.9562 219.1664 14.89007721971817
TERRASAR-X              
1 31698U 07026A   25144.56890478  .00000790  00000+0  40812-4 0  9999
2 31698  97.4452 152.8309 0001898  86.4855 273.6597 15.19153942994887
WORLDVIEW-1 (WV-1)      
1 32060U 07041A   25144.41866928  .00006197  00000+0  25671-3 0  9999
2 32060  97.3830 264.8727 0003288 166.7615 193.3710 15.24264419983701
YAOGAN-3                
1 32289U 07055A   25144.83989290  .00001959  00000+0  21565-3 0  9990
2 32289  97.8538 173.1870 0001220  93.5465 266.5891 14.88712442948100
COSMO-SKYMED 2          
1 32376U 07059A   25144.84053780  .00000435  00000+0  61196-4 0  9991
2 32376  97.8874 329.0769 0001340  89.7336 270.4031 14.82148010944559
RADARSAT-2              
1 32382U 07061A   25144.83946842  .00000072  00000+0  44732-4 0  9994
2 32382  98.5783 152.3108 0001276  89.0901 271.0428 14.29984178910561
CARTOSAT-2A             
1 32783U 08021A   25144.82649784  .00000679  00000+0  99333-4 0  9990
2 32783  97.8161 200.6484 0009939 295.6727  64.3458 14.78727678921491
HUANJING 1A (HJ-1A)     
1 33320U 08041A   25144.88266902  .00001344  00000+0  17264-3 0  9995
2 33320  97.6405 141.8760 0018770 337.9226  22.1178 14.82652566900944
HUANJING 1B (HJ-1B)     
1 33321U 08041B   25144.84028646  .00001033  00000+0  13435-3 0  9994
2 33321  97.6292 145.9949 0037671  20.0013 340.2668 14.82212228900954
GEOEYE 1                
1 33331U 08042A   25144.58846873  .00000479  00000+0  99063-4 0  9992
2 33331  98.1220 218.4564 0004113 181.4639 178.6552 14.64655201893264
THEOS                   
1 33396U 08049A   25144.81797247  .00000036  00000+0  37066-4 0  9990
2 33396  98.6100 208.5342 0001028  92.1711 267.9583 14.20104761862862
