[
  {
    "OBJECT_NAME": "ARIRANG-2 (KOMPSAT-2)",
    "OBJECT_ID": "2006-031A",
    "EPOCH": "2025-05-24T20:46:12.359712",
    "MEAN_MOTION": 14.64286346,
    "ECCENTRICITY": 0.0013524,
    "INCLINATION": 97.838,
    "RA_OF_ASC_NODE": 343.0926,
    "ARG_OF_PERICENTER": 221.3428,
    "MEAN_ANOMALY": 196.5348,
    "EPHEMERIS_TYPE": 0,
    "CLASSIFICATION_TYPE": "U",
    "NORAD_CAT_ID": 29268,
    "ELEMENT_SET_NO": 999,
    "REV_AT_EPOCH": 474,
    "BSTAR": 7.3716e-05,
    "MEAN_MOTION_DOT": 3.44e-06,
    "MEAN_MOTION_DDOT": 0
  },
  {
    "OBJECT_NAME": "LAPAN-TUBSAT",
    "OBJECT_ID": "2007-001A",
    "EPOCH": "2025-05-24T21:39:47.066112",
    "MEAN_MOTION": 14.85314084,
    "ECCENTRICITY": 0.0012675,
    "INCLINATION": 98.1089,
    "RA_OF_ASC_NODE": 131.1405,
    "ARG_OF_PERICENTER": 16.2561,
    "MEAN_ANOMALY": 343.9057,
    "EPHEMERIS_TYPE": 0,
    "CLASSIFICATION_TYPE": "U",
    "NORAD_CAT_ID": 29709,
    "ELEMENT_SET_NO": 999,
    "REV_AT_EPOCH": 99351,
    "BSTAR": 7.1958e-05,
    "MEAN_MOTION_DOT": 5.62e-06,
    "MEAN_MOTION_DDOT": 0
  },
  {
    "OBJECT_NAME": "HAIYANG-1B",
    "OBJECT_ID": "2007-010A",
    "EPOCH": "2025-05-24T10:33:58.391424",
    "MEAN_MOTION": 14.30888207,
    "ECCENTRICITY": 0.0012226,
    "INCLINATION": 98.3136,
    "RA_OF_ASC_NODE": 137.2692,
    "ARG_OF_PERICENTER": 274.9088,
    "MEAN_ANOMALY": 85.0699,
    "EPHEMERIS_TYPE": 0,
    "CLASSIFICATION_TYPE": "U",
    "NORAD_CAT_ID": 31113,
    "ELEMENT_SET_NO": 999,
    "REV_AT_EPOCH": 94503,
    "BSTAR": 5.1575e-05,
    "MEAN_MOTION_DOT": 9.4e-07,
    "MEAN_MOTION_DDOT": 0
  },
  {
    "OBJECT_NAME": "COSMO-SKYMED 1",
    "OBJECT_ID": "2007-023A",
    "EPOCH": "2025-05-24T20:12:07.498080",
    "MEAN_MOTION": 14.89007721,
    "ECCENTRICITY": 1.27e-05,
    "INCLINATION": 97.8874,
    "RA_OF_ASC_NODE": 329.3116,
    "ARG_OF_PERICENTER": 140.9562,
    "MEAN_ANOMALY": 219.1664,
    "EPHEMERIS_TYPE": 0,
    "CLASSIFICATION_TYPE": "U",
    "NORAD_CAT_ID": 31598,
    "ELEMENT_SET_NO": 999,
    "REV_AT_EPOCH": 97181,
    "BSTAR": 7.1446e-05,
    "MEAN_MOTION_DOT": 6.17e-06,
    "MEAN_MOTION_DDOT": 0
  },
  {
    "OBJECT_NAME": "TERRASAR-X",
    "OBJECT_ID": "2007-026A",
    "EPOCH": "2025-05-24T13:39:13.372992",
    "MEAN_MOTION": 15.19153942,
    "ECCENTRICITY": 0.0001898,
    "INCLINATION": 97.4452,
    "RA_OF_ASC_NODE": 152.8309,
    "ARG_OF_PERICENTER": 86.4855,
    "MEAN_ANOMALY": 273.6597,
    "EPHEMERIS_TYPE": 0,
    "CLASSIFICATION_TYPE": "U",
    "NORAD_CAT_ID": 31698,
    "ELEMENT_SET_NO": 999,
    "REV_AT_EPOCH": 99488,
    "BSTAR": 4.0812e-05,
    "MEAN_MOTION_DOT": 7.9e-06,
    "MEAN_MOTION_DDOT": 0
  },
  {
    "OBJECT_NAME": "WORLDVIEW-1 (WV-1)",
    "OBJECT_ID": "2007-041A",
    "EPOCH": "2025-05-24T10:02:53.025792",
    "MEAN_MOTION": 15.24264419,
    "ECCENTRICITY": 0.0003288,
    "INCLINATION": 97.383,
    "RA_OF_ASC_NODE": 264.8727,
    "ARG_OF_PERICENTER": 166.7615,
    "MEAN_ANOMALY": 193.371,
    "EPHEMERIS_TYPE": 0,
    "CLASSIFICATION_TYPE": "U",
    "NORAD_CAT_ID": 32060,
    "ELEMENT_SET_NO": 999,
    "REV_AT_EPOCH": 98370,
    "BSTAR": 0.00025671,
    "MEAN_MOTION_DOT": 6.197e-05,
    "MEAN_MOTION_DDOT": 0
  },
  {
    "OBJECT_NAME": "YAOGAN-3",
    "OBJECT_ID": "2007-055A",
    "EPOCH": "2025-05-24T20:09:26.746560",
    "MEAN_MOTION": 14.88712442,
    "ECCENTRICITY": 0.000122,
    "INCLINATION": 97.8538,
    "RA_OF_ASC_NODE": 173.187,
    "ARG_OF_PERICENTER": 93.5465,
    "MEAN_ANOMALY": 266.5891,
    "EPHEMERIS_TYPE": 0,
    "CLASSIFICATION_TYPE": "U",
    "NORAD_CAT_ID": 32289,
    "ELEMENT_SET_NO": 999,
    "REV_AT_EPOCH": 94810,
    "BSTAR": 0.00021565,
    "MEAN_MOTION_DOT": 1.959e-05,
    "MEAN_MOTION_DDOT": 0
  },
  {
    "OBJECT_NAME": "COSMO-SKYMED 2",
    "OBJECT_ID": "2007-059A",
    "EPOCH": "2025-05-24T20:10:22.465920",
    "MEAN_MOTION": 14.8214801,
    "ECCENTRICITY": 0.000134,
    "INCLINATION": 97.8874,
    "RA_OF_ASC_NODE": 329.0769,
    "ARG_OF_PERICENTER": 89.7336,
    "MEAN_ANOMALY": 270.4031,
    "EPHEMERIS_TYPE": 0,
    "CLASSIFICATION_TYPE": "U",
    "NORAD_CAT_ID": 32376,
    "ELEMENT_SET_NO": 999,
    "REV_AT_EPOCH": 94455,
    "BSTAR": 6.1196e-05,
    "MEAN_MOTION_DOT": 4.35e-06,
    "MEAN_MOTION_DDOT": 0
  },
  {
    "OBJECT_NAME": "RADARSAT-2",
    "OBJECT_ID": "2007-061A",
    "EPOCH": "2025-05-24T20:08:50.071488",
    "MEAN_MOTION": 14.29984178,
    "ECCENTRICITY": 0.0001276,
    "INCLINATION": 98.5783,
    "RA_OF_ASC_NODE": 152.3108,
    "ARG_OF_PERICENTER": 89.0901,
    "MEAN_ANOMALY": 271.0428,
    "EPHEMERIS_TYPE": 0,
    "CLASSIFICATION_TYPE": "U",
    "NORAD_CAT_ID": 32382,
    "ELEMENT_SET_NO": 999,
    "REV_AT_EPOCH": 91056,
    "BSTAR": 4.4732e-05,
    "MEAN_MOTION_DOT": 7.2e-07,
    "MEAN_MOTION_DDOT": 0
  },
  {
    "OBJECT_NAME": "CARTOSAT-2A",
    "OBJECT_ID": "2008-021A",
    "EPOCH": "2025-05-24T19:50:09.413376",
    "MEAN_MOTION": 14.78727678,
    "ECCENTRICITY": 0.0009939,
    "INCLINATION": 97.8161,
    "RA_OF_ASC_NODE": 200.6484,
    "ARG_OF_PERICENTER": 295.6727,
    "MEAN_ANOMALY": 64.3458,
    "EPHEMERIS_TYPE": 0,
    "CLASSIFICATION_TYPE": "U",
    "NORAD_CAT_ID": 32783,
    "ELEMENT_SET_NO": 999,
    "REV_AT_EPOCH": 92149,
    "BSTAR": 9.9333e-05,
    "MEAN_MOTION_DOT": 6.79e-06,
    "MEAN_MOTION_DDOT": 0
  },
  {
    "OBJECT_NAME": "HUANJING 1A (HJ-1A)",
    "OBJECT_ID": "2008-041A",
    "EPOCH": "2025-05-24T21:11:02.603328",
    "MEAN_MOTION": 14.82652566,
    "ECCENTRICITY": 0.001877,
    "INCLINATION": 97.6405,
    "RA_OF_ASC_NODE": 141.876,
    "ARG_OF_PERICENTER": 337.9226,
    "MEAN_ANOMALY": 22.1178,
    "EPHEMERIS_TYPE": 0,
    "CLASSIFICATION_TYPE": "U",
    "NORAD_CAT_ID": 33320,
    "ELEMENT_SET_NO": 999,
    "REV_AT_EPOCH": 90094,
    "BSTAR": 0.00017264,
    "MEAN_MOTION_DOT": 1.344e-05,
    "MEAN_MOTION_DDOT": 0
  },
  {
    "OBJECT_NAME": "HUANJING 1B (HJ-1B)",
    "OBJECT_ID": "2008-041B",
    "EPOCH": "2025-05-24T20:10:00.750144",
    "MEAN_MOTION": 14.82212228,
    "ECCENTRICITY": 0.0037671,
    "INCLINATION": 97.6292,
    "RA_OF_ASC_NODE": 145.9949,
    "ARG_OF_PERICENTER": 20.0013,
    "MEAN_ANOMALY": 340.2668,
    "EPHEMERIS_TYPE": 0,
    "CLASSIFICATION_TYPE": "U",
    "NORAD_CAT_ID": 33321,
    "ELEMENT_SET_NO": 999,
    "REV_AT_EPOCH": 90095,
    "BSTAR": 0.00013435,
    "MEAN_MOTION_DOT": 1.033e-05,
    "MEAN_MOTION_DDOT": 0
  },
  {
    "OBJECT_NAME": "GEOEYE 1",
    "OBJECT_ID": "2008-042A",
    "EPOCH": "2025-05-24T14:07:23.698272",
    "MEAN_MOTION": 14.64655201,
    "ECCENTRICITY": 0.0004113,
    "INCLINATION": 98.122,
    "RA_OF_ASC_NODE": 218.4564,
    "ARG_OF_PERICENTER": 181.4639,
    "MEAN_ANOMALY": 178.6552,
    "EPHEMERIS_TYPE": 0,
    "CLASSIFICATION_TYPE": "U",
    "NORAD_CAT_ID": 33331,
    "ELEMENT_SET_NO": 999,
    "REV_AT_EPOCH": 89326,
    "BSTAR": 9.9063e-05,
    "MEAN_MOTION_DOT": 4.79e-06,
    "MEAN_MOTION_DDOT": 0
  },
  {
    "OBJECT_NAME": "THEOS",
    "OBJECT_ID": "2008-049A",
    "EPOCH": "2025-05-24T19:37:52.821408",
    "MEAN_MOTION": 14.20104761,
    "ECCENTRICITY": 0.0001028,
    "INCLINATION": 98.61,
    "RA_OF_ASC_NODE": 208.5342,
    "ARG_OF_PERICENTER": 92.1711,
    "MEAN_ANOMALY": 267.9583,
    "EPHEMERIS_TYPE": 0,
    "CLASSIFICATION_TYPE": "U",
    "NORAD_CAT_ID": 33396,
    "ELEMENT_SET_NO": 999,
    "REV_AT_EPOCH": 86286,
    "BSTAR": 3.7066e-05,
    "MEAN_MOTION_DOT": 3.6e-07,
    "MEAN_MOTION_DDOT": 0
  }
]